{
  "norad_id": 43890,
  "name": "GRUS-1A",
  "history": [
    {
      "epoch": "2026-03-28T22:18:41.251968Z",
      "apogee_km": 577.9649616408651,
      "perigee_km": 562.1876536831578,
      "latitude_deg": -3.416213494118115e-06,
      "longitude_deg": 157.49578225057982,
      "height_km": 570.4819763910568,
      "semi_major_axis_km": 6948.213307662011,
      "eccentricity": 0.00113535,
      "inclination_deg": 97.4666,
      "raan_deg": 318.5107,
      "arg_perigee_deg": 70.5257,
      "mean_anomaly_deg": 289.7192,
      "mean_motion_rev_day": 14.98970369
    },
    {
      "epoch": "2026-03-29T04:43:11.521632Z",
      "apogee_km": 577.9558889558166,
      "perigee_km": 562.1917882052448,
      "latitude_deg": 3.5236018666888266e-05,
      "longitude_deg": 61.36216971038223,
      "height_km": 570.3596344666498,
      "semi_major_axis_km": 6948.21083858053,
      "eccentricity": 0.0011344,
      "inclination_deg": 97.4667,
      "raan_deg": 318.7664,
      "arg_perigee_deg": 69.5803,
      "mean_anomaly_deg": 290.6638,
      "mean_motion_rev_day": 14.98971168
    },
    {
      "epoch": "2026-03-30T04:45:04.777344Z",
      "apogee_km": 577.9085082051088,
      "perigee_km": 562.2083657956637,
      "latitude_deg": 2.8170325956616746e-05,
      "longitude_deg": 60.862535478666004,
      "height_km": 569.9670794573796,
      "semi_major_axis_km": 6948.195437000386,
      "eccentricity": 0.0011298,
      "inclination_deg": 97.4668,
      "raan_deg": 319.7256,
      "arg_perigee_deg": 66.5186,
      "mean_anomaly_deg": 293.7224,
      "mean_motion_rev_day": 14.98976152
    },
    {
      "epoch": "2026-03-30T06:21:12.330720Z",
      "apogee_km": 577.8995864199533,
      "perigee_km": 562.2169538396492,
      "latitude_deg": 6.24128803205613e-06,
      "longitude_deg": 36.82917018071428,
      "height_km": 569.9503019499219,
      "semi_major_axis_km": 6948.1952701298005,
      "eccentricity": 0.00112854,
      "inclination_deg": 97.4668,
      "raan_deg": 319.7895,
      "arg_perigee_deg": 66.3578,
      "mean_anomaly_deg": 293.8829,
      "mean_motion_rev_day": 14.98976206
    },
    {
      "epoch": "2026-03-30T14:21:49.967136Z",
      "apogee_km": 577.8673266270616,
      "perigee_km": 562.2354313757514,
      "latitude_deg": 2.6750870245389795e-05,
      "longitude_deg": -83.33682818601164,
      "height_km": 569.8407970602851,
      "semi_major_axis_km": 6948.188379001406,
      "eccentricity": 0.00112489,
      "inclination_deg": 97.4669,
      "raan_deg": 320.1093,
      "arg_perigee_deg": 65.4498,
      "mean_anomaly_deg": 294.7897,
      "mean_motion_rev_day": 14.98978436
    },
    {
      "epoch": "2026-03-30T22:22:27.588864Z",
      "apogee_km": 577.8614596222624,
      "perigee_km": 562.2245804871291,
      "latitude_deg": -7.34745917485369e-05,
      "longitude_deg": 156.49735055246447,
      "height_km": 569.6854090906547,
      "semi_major_axis_km": 6948.180020054695,
      "eccentricity": 0.00112525,
      "inclination_deg": 97.4669,
      "raan_deg": 320.4292,
      "arg_perigee_deg": 64.2657,
      "mean_anomaly_deg": 295.9726,
      "mean_motion_rev_day": 14.98981141
    },
    {
      "epoch": "2026-03-31T20:48:12.883392Z",
      "apogee_km": 577.8107634016042,
      "perigee_km": 562.2538123660324,
      "latitude_deg": -8.246823381300953e-05,
      "longitude_deg": -179.96721068409005,
      "height_km": 569.3737080274868,
      "semi_major_axis_km": 6948.1692878838185,
      "eccentricity": 0.0011195,
      "inclination_deg": 97.4668,
      "raan_deg": 321.3245,
      "arg_perigee_deg": 61.6263,
      "mean_anomaly_deg": 298.6087,
      "mean_motion_rev_day": 14.98984614
    },
    {
      "epoch": "2026-04-01T20:50:05.511840Z",
      "apogee_km": 577.7442285925763,
      "perigee_km": 562.3040249366804,
      "latitude_deg": -5.095051316899306e-06,
      "longitude_deg": 179.53586545406552,
      "height_km": 569.0240185955703,
      "semi_major_axis_km": 6948.1611267646285,
      "eccentricity": 0.0011111,
      "inclination_deg": 97.4665,
      "raan_deg": 322.2838,
      "arg_perigee_deg": 58.4541,
      "mean_anomaly_deg": 301.7766,
      "mean_motion_rev_day": 14.98987255
    },
    {
      "epoch": "2026-04-02T20:51:57.892320Z",
      "apogee_km": 577.687186256584,
      "perigee_km": 562.3373349101039,
      "latitude_deg": 3.439082012558367e-05,
      "longitude_deg": 179.04008207220176,
      "height_km": 568.6840505625782,
      "semi_major_axis_km": 6948.149260583344,
      "eccentricity": 0.0011046,
      "inclination_deg": 97.4662,
      "raan_deg": 323.2432,
      "arg_perigee_deg": 55.3096,
      "mean_anomaly_deg": 304.9167,
      "mean_motion_rev_day": 14.98991095
    },
    {
      "epoch": "2026-04-02T22:28:05.354112Z",
      "apogee_km": 577.6698342159052,
      "perigee_km": 562.3475054589535,
      "latitude_deg": -1.021897371384642e-05,
      "longitude_deg": 155.00750234430996,
      "height_km": 568.6477457476348,
      "semi_major_axis_km": 6948.1456698374295,
      "eccentricity": 0.00110262,
      "inclination_deg": 97.4658,
      "raan_deg": 323.3075,
      "arg_perigee_deg": 54.9384,
      "mean_anomaly_deg": 305.2872,
      "mean_motion_rev_day": 14.98992257
    },
    {
      "epoch": "2026-04-03T20:53:49.915968Z",
      "apogee_km": 577.5577537246454,
      "perigee_km": 562.4288947566438,
      "latitude_deg": 8.540925544825353e-05,
      "longitude_deg": 178.5455873155753,
      "height_km": 568.3870465589973,
      "semi_major_axis_km": 6948.130324240645,
      "eccentricity": 0.0010887,
      "inclination_deg": 97.4652,
      "raan_deg": 324.2024,
      "arg_perigee_deg": 52.0926,
      "mean_anomaly_deg": 308.1281,
      "mean_motion_rev_day": 14.98997223
    },
    {
      "epoch": "2026-04-04T06:30:34.737696Z",
      "apogee_km": 577.5593036463324,
      "perigee_km": 562.4340504074862,
      "latitude_deg": -4.090089163869741e-05,
      "longitude_deg": 34.34747699453746,
      "height_km": 568.2369439961826,
      "semi_major_axis_km": 6948.133677026909,
      "eccentricity": 0.00108844,
      "inclination_deg": 97.4647,
      "raan_deg": 324.5858,
      "arg_perigee_deg": 50.5882,
      "mean_anomaly_deg": 309.6303,
      "mean_motion_rev_day": 14.98996138
    }
  ]
}